NORAD_CAT_ID,OBJECT_NAME,OBJECT_TYPE,EPOCH,MEAN_MOTION,ECCENTRICITY,INCLINATION,RA_OF_ASC_NODE,ARG_OF_PERICENTER,MEAN_ANOMALY,BSTAR,MEAN_MOTION_DOT,MEAN_MOTION_DDOT,TLE_LINE0,TLE_LINE1,TLE_LINE2,SEMIMAJOR_AXIS,PERIOD,APOGEE,PERIGEE,DECAYED
51138.0,STARLINK-3177,PAYLOAD,2024-08-08 17:06:44,15.08855101,0.0001435,53.2181,13.7586,99.2453,260.8701,0.00031028,4.656e-05,0.0,0 STARLINK-3177,1 51138U 22005AL  24221.71301422  .00004656  00000-0  31028-3 0  9996,2 51138  53.2181  13.7586 0001435  99.2453 260.8701 15.08855101141470,6917.834,95.437,540.692,538.707,0.0
51138.0,STARLINK-3177,PAYLOAD,2024-08-09 02:39:03,15.08845665,0.0001352,53.218,11.9748,93.5403,266.5744,0.0001225,1.662e-05,0.0,0 STARLINK-3177,1 51138U 22005AL  24222.11045778  .00001662  00000-0  12250-3 0  9990,2 51138  53.2180  11.9748 0001352  93.5403 266.5744 15.08845665142654,6917.863,95.437,540.663,538.793,0.0
51138.0,STARLINK-3177,PAYLOAD,2024-08-09 13:46:45,15.08851955,0.0001763,53.2183,9.8948,121.2888,238.8277,0.00019619,2.837e-05,0.0,0 STARLINK-3177,1 51138U 22005AL  24222.57413368  .00002837  00000-0  19619-3 0  9995,2 51138  53.2183   9.8948 0001763 121.2888 238.8277 15.08851955141603,6917.844,95.437,540.928,538.489,0.0
51138.0,STARLINK-3177,PAYLOAD,2024-08-09 20:08:17,15.08860344,0.0001029,53.2176,8.7018,103.2967,256.814,0.00038313,5.818e-05,0.0,0 STARLINK-3177,1 51138U 22005AL  24222.83908933  .00005818  00000-0  38313-3 0  9995,2 51138  53.2176   8.7018 0001029 103.2967 256.8140 15.08860344141649,6917.818,95.436,540.395,538.971,0.0
51138.0,STARLINK-3177,PAYLOAD,2024-08-10 13:37:32,15.08842098,0.0001746,53.2176,5.4278,116.8542,243.2629,-2.2452e-05,-6.45e-06,0.0,0 STARLINK-3177,1 51138U 22005AL  24223.56773506 -.00000645  00000-0 -22452-4 0  9995,2 51138  53.2176   5.4278 0001746 116.8542 243.2629 15.08842098141756,6917.874,95.437,540.947,538.531,0.0
51138.0,STARLINK-3177,PAYLOAD,2024-08-10 18:23:41,15.08855195,0.0001218,53.2176,4.5367,81.0725,279.0405,0.00032023,4.814e-05,0.0,0 STARLINK-3177,1 51138U 22005AL  24223.76645278  .00004814  00000-0  32023-3 0  9995,2 51138  53.2176   4.5367 0001218  81.0725 279.0405 15.08855195142904,6917.834,95.437,540.542,538.856,0.0
51138.0,STARLINK-3177,PAYLOAD,2024-08-11 02:20:37,15.08830499,0.000125,53.2175,3.0525,84.2087,275.9048,-0.00014861,-2.652e-05,0.0,0 STARLINK-3177,1 51138U 22005AL  24224.09766136 -.00002652  00000-0 -14861-3 0  9999,2 51138  53.2175   3.0525 0001250  84.2087 275.9048 15.08830499142958,6917.909,95.438,540.639,538.91,0.0
51138.0,STARLINK-3177,PAYLOAD,2024-08-11 18:14:29,15.08843378,8.25e-05,53.2176,0.0842,112.8557,247.2522,0.00020467,2.971e-05,0.0,0 STARLINK-3177,1 51138U 22005AL  24224.76005994  .00002971  00000-0  20467-3 0  9992,2 51138  53.2176   0.0842 0000825 112.8557 247.2522 15.08843378143056,6917.87,95.437,540.306,539.164,0.0
51138.0,STARLINK-3177,PAYLOAD,2024-08-12 14:54:29,15.08862734,6.2e-05,53.2161,356.213,113.7578,246.3479,0.00084709,0.00013228,0.0,0 STARLINK-3177,1 51138U 22005AL  24225.62117570  .00013228  00000-0  84709-3 0  9998,2 51138  53.2161 356.2130 0000620 113.7578 246.3479 15.08862734142060,6917.811,95.436,540.105,539.247,0.0
51138.0,STARLINK-3177,PAYLOAD,2024-08-12 18:05:15,15.08883322,0.0002159,53.2158,355.6203,87.0866,273.0373,0.0012945,0.00020399,0.0,0 STARLINK-3177,1 51138U 22005AL  24225.75365019  .00020399  00000-0  12945-2 0  9994,2 51138  53.2158 355.6203 0002159  87.0866 273.0373 15.08883322143205,6917.748,95.435,541.107,538.119,0.0
51138.0,STARLINK-3177,PAYLOAD,2024-08-12 21:16:00,15.0891924,0.0001906,53.2148,355.0192,111.9869,248.1325,0.0022033,0.00035029,0.0,0 STARLINK-3177,1 51138U 22005AL  24225.88611884  .00035029  00000-0  22033-2 0  9997,2 51138  53.2148 355.0192 0001906 111.9869 248.1325 15.08919240142101,6917.638,95.433,540.822,538.185,0.0
51138.0,STARLINK-3177,PAYLOAD,2024-08-13 02:02:10,15.08869083,0.000121,53.2161,354.1318,87.5492,272.5638,8.911e-05,1.132e-05,0.0,0 STARLINK-3177,1 51138U 22005AL  24226.08484157  .00001132  00000-0  89110-4 0  9990,2 51138  53.2161 354.1318 0001210  87.5492 272.5638 15.08869083143258,6917.791,95.436,540.494,538.819,0.0
51138.0,STARLINK-3177,PAYLOAD,2024-08-13 17:56:03,15.08801236,0.0001325,53.2143,351.1586,94.8213,265.2931,-0.0011099,-0.0001789,0.0,0 STARLINK-3177,1 51138U 22005AL  24226.74726705 -.00017890  00000-0 -11099-2 0  9990,2 51138  53.2143 351.1586 0001325  94.8213 265.2931 15.08801236143353,6917.999,95.44,540.781,538.947,0.0
51138.0,STARLINK-3177,PAYLOAD,2024-08-14 01:53:00,15.08805137,0.0001059,53.2243,349.6727,89.3539,270.7574,-0.00043727,-7.233e-05,0.0,0 STARLINK-3177,1 51138U 22005AL  24227.07847408 -.00007233  00000-0 -43727-3 0  9995,2 51138  53.2243 349.6727 0001059  89.3539 270.7574 15.08805137143401,6917.987,95.44,540.585,539.119,0.0
51138.0,STARLINK-3177,PAYLOAD,2024-08-14 13:00:43,15.08821695,0.0002017,53.2168,347.5878,96.6754,263.4468,0.0014911,0.00023511,0.0,0 STARLINK-3177,1 51138U 22005AL  24227.54216633  .00023511  00000-0  14911-2 0  9994,2 51138  53.2168 347.5878 0002017  96.6754 263.4468 15.08821695143471,6917.936,95.439,541.197,538.406,0.0
51138.0,STARLINK-3177,PAYLOAD,2024-08-14 14:36:06,15.08828388,0.0001138,53.2181,347.2932,89.3524,270.7599,0.0016598,0.00026218,0.0,0 STARLINK-3177,1 51138U 22005AL  24227.60840630  .00026218  00000-0  16598-2 0  9991,2 51138  53.2181 347.2932 0001138  89.3524 270.7599 15.08828388142360,6917.916,95.438,540.568,538.994,0.0
51138.0,STARLINK-3177,PAYLOAD,2024-08-15 14:26:52,15.08862729,0.000129,53.2171,342.8334,81.8474,278.2664,0.001257,0.00019786,0.0,0 STARLINK-3177,1 51138U 22005AL  24228.60200203  .00019786  00000-0  12570-2 0  9996,2 51138  53.2171 342.8334 0001290  81.8474 278.2664 15.08862729142516,6917.811,95.436,540.568,538.784,0.0
51138.0,STARLINK-3177,PAYLOAD,2024-08-15 19:13:02,15.0887442,0.0001309,53.2172,341.9413,80.2593,279.8547,0.0014404,0.00022732,0.0,0 STARLINK-3177,1 51138U 22005AL  24228.80071766  .00022732  00000-0  14404-2 0  9991,2 51138  53.2172 341.9413 0001309  80.2593 279.8547 15.08874420143666,6917.775,95.435,540.546,538.735,0.0
51138.0,STARLINK-3177,PAYLOAD,2024-08-17 07:46:53,15.08889813,0.000116,53.2182,335.1026,92.4131,267.6994,0.0016194,0.00025614,0.0,0 STARLINK-3177,1 51138U 22005AL  24230.32422772  .00025614  00000-0  16194-2 0  9998,2 51138  53.2182 335.1026 0001160  92.4131 267.6994 15.08889813143898,6917.728,95.434,540.396,538.791,0.0
51138.0,STARLINK-3177,PAYLOAD,2024-08-17 17:19:11,15.08872072,0.000118,53.2183,333.3182,86.8497,273.263,0.000758,0.00011807,0.0,0 STARLINK-3177,1 51138U 22005AL  24230.72166028  .00011807  00000-0  75800-3 0  9990,2 51138  53.2183 333.3182 0001180  86.8497 273.2630 15.08872072143952,6917.782,95.436,540.464,538.831,0.0
51138.0,STARLINK-3177,PAYLOAD,2024-08-18 12:23:49,15.08847063,0.0001558,53.2185,329.7436,98.8474,261.2694,0.00033245,5.008e-05,0.0,0 STARLINK-3177,1 51138U 22005AL  24231.51654375  .00005008  00000-0  33245-3 0  9998,2 51138  53.2185 329.7436 0001558  98.8474 261.2694 15.08847063144075,6917.859,95.437,540.802,538.646,0.0
51138.0,STARLINK-3177,PAYLOAD,2024-08-18 15:34:35,15.08857003,0.000149,53.2184,329.148,99.5038,260.6123,0.0008891,0.00013897,0.0,0 STARLINK-3177,1 51138U 22005AL  24231.64902219  .00013897  00000-0  88910-3 0  9999,2 51138  53.2184 329.1480 0001490  99.5038 260.6123 15.08857003142978,6917.828,95.436,540.724,538.663,0.0
51138.0,STARLINK-3177,PAYLOAD,2024-08-19 10:39:14,15.0882299,0.0001509,53.2187,325.5859,100.9482,259.168,0.00051931,7.983e-05,0.0,0 STARLINK-3177,1 51138U 22005AL  24232.44391394  .00007983  00000-0  51931-3 0  9996,2 51138  53.2187 325.5859 0001509 100.9482 259.1680 15.08822990144219,6917.932,95.439,540.841,538.753,0.0
51138.0,STARLINK-3177,PAYLOAD,2024-08-20 12:05:24,15.08850882,0.0001464,53.2157,320.829,84.9979,275.1181,0.0008618,0.00013458,0.0,0 STARLINK-3177,1 51138U 22005AL  24233.50375663  .00013458  00000-0  86180-3 0  9993,2 51138  53.2157 320.8290 0001464  84.9979 275.1181 15.08850882144377,6917.847,95.437,540.725,538.699,0.0
51138.0,STARLINK-3177,PAYLOAD,2024-08-20 13:40:47,15.0885751,0.0001483,53.2159,320.5326,77.6938,282.422,0.0011113,0.00017451,0.0,0 STARLINK-3177,1 51138U 22005AL  24233.56999607  .00017451  00000-0  11113-2 0  9999,2 51138  53.2159 320.5326 0001483  77.6938 282.4220 15.08857510143268,6917.827,95.436,540.718,538.666,0.0
51138.0,STARLINK-3177,PAYLOAD,2024-08-21 11:56:11,15.08855247,0.0001271,53.2156,316.3696,88.7595,271.3542,0.0007329,0.000114,0.0,0 STARLINK-3177,1 51138U 22005AL  24234.49735507  .00011400  00000-0  73290-3 0  9992,2 51138  53.2156 316.3696 0001271  88.7595 271.3542 15.08855247144524,6917.834,95.437,540.578,538.82,0.0
51138.0,STARLINK-3177,PAYLOAD,2024-08-21 16:42:20,15.08857072,0.0001333,53.2158,315.4776,89.9052,270.2093,0.00081445,0.00012704,0.0,0 STARLINK-3177,1 51138U 22005AL  24234.69607409  .00012704  00000-0  81445-3 0  9992,2 51138  53.2158 315.4776 0001333  89.9052 270.2093 15.08857072143431,6917.828,95.436,540.615,538.771,0.0
